#dP2022  9 29  6  0  0.00000000      96 __u+U ITR00 EXT  IAC
## 2229 367200.00000000   900.00000000 59851 0.2500000000000
+  117   C06C07C08C09C10C11C12C13C14C16C19C20C21C22C23C24C25
+        C26C27C28C29C30C32C33C34C35C36C37C38C39C40C41C42C43
+        C44C45C46E01E02E03E04E05E07E08E09E10E11E12E13E14E15
+        E18E19E21E24E25E26E27E30E31E33E34E36G01G02G03G04G05
+        G06G07G08G09G10G11G12G13G14G15G16G17G18G19G20G21G22
+        G23G24G25G26G27G28G29G30G31G32J02J03R01R02R03R04R05
+        R07R08R09R11R12R13R14R15R17R18R19R20R21R24R25  0  0
++         9  9  8 11  9  9  8  9  9 10 10 10  8  9  9 10  8
++         7  8  9  9  9  9  9  8  8  9  9  9 10 10  8  8  9
++         9  8  8  9  8  8  9  8  8  9  8 10 11 12  9  9  8
++         9  9  9  7  8  9  8  8  7 10  7  7  7  8  6  7  9
++         7  9  9  6  7  7  8  8  8  8  7  8  8  8  8  8  9
++         6  6  7  8  8  7  9  8  7  8  9  8  9  8  9  9  9
++         8  8  7  9  9  9 10  9  9  8  9  9 10  8  9  0  0
%c M  cc GPS ccc cccc cccc cccc cccc ccccc ccccc ccccc ccccc
%c cc cc ccc ccc cccc cccc cccc cccc ccccc ccccc ccccc ccccc
%f  0.0000000  0.000000000  0.00000000000  0.000000000000000
%f  0.0000000  0.000000000  0.00000000000  0.000000000000000
%i    0    0    0    0      0      0      0      0         0
%i    0    0    0    0      0      0      0      0         0
/* IAC                                ULTRA-RAPID PREDICTION
/* S/V CLOCKS ARE ALIGNED TO GNSS TIME                      
/* G:C1WC2W R:C1PC2P E:C1XC5X C:C2IC6I J:C1CC2S             
/* PCV:IGS14_2218 OL/AL:FES2004  NONE     YN ORB:CoN CLK:CoN
*  2022 09 30  5 30  0.00000000
PC06  -5800.740400  39530.743807  13840.580358    909.744221
PC07  -8932.462268  25581.348993 -32256.803127   -210.682168
PC08      0.000000      0.000000      0.000000    483.775610
PC09   -848.809188  42193.787407   4901.408621   -848.650933
PC10   -588.262385  27436.945476 -31644.951481     90.254965
PC11 -13553.629110   8577.384820 -22762.182127   -379.345068
PC12 -15784.053792 -11883.932012 -19678.562253   -500.098496
PC13 -12178.834296  30917.894633  25904.210416     94.158901
PC14 -22955.844441   4134.902677  15367.757236    687.235827
PC16  -8276.540550  37473.460827  17949.972490    133.765037
PC19  15170.405810 -10416.379746 -20958.698236   -768.088217
PC20  26386.167464   1614.088480  -8898.150999    853.247542
PC21 -22492.646159 -13587.067043  -9413.097454   -502.255608
PC22  -5328.919377 -17019.169666 -21478.798463   -847.102466
PC23  -5459.647688  21583.941580 -16810.666354   -325.951489
PC24 -22402.126981   5369.572247  15726.553341   -384.483174
PC25 -18998.618538  20345.187613  -1792.607893      2.791710
PC26 -12981.827706  -9974.368997  22587.991438    -14.691395
PC27  13982.932423  19946.084999  13602.899834     28.633480
PC28   4042.209969  27470.409904  -2735.306058     18.807517
PC29   8377.232798 -19089.316497  18548.415145     20.369240
PC30  16450.341567   1115.422481  22510.061424      0.230731
PC32  22512.377555  13465.387163   9517.117590   -780.406179
PC33 -15242.318791  10466.511390  20900.505129   -790.685291
PC34 -16278.927801    216.679071 -22673.198906      6.093075
PC35  -4036.346134 -27291.397097   4097.184628     19.982154
PC36  19770.996690 -19663.243787   1250.327526   -453.788595
PC37  11730.038947  11280.892185 -22650.946157   -355.422734
PC38 -25101.642394  31371.447782  12485.052184     27.770446
PC39  -9363.282156  34611.078483  22353.922689     -0.528987
PC40 -13613.152130  18887.369877 -35166.575353     -5.104236
PC41   4732.326128  16989.698828  21669.622983   -126.618376
PC42 -26693.194441  -2360.261172   7853.663270   -386.736446
PC43  -8988.516166  18458.649772 -18914.940787     17.003503
PC44 -14720.868003 -19533.294440 -13422.606782     66.295724
PC45   5193.226151 -21436.841452  17116.467721     -3.934648
PC46  22785.760169  -7040.336320 -14518.809647     -3.168912
PE01  28432.377659   -494.810808  -8221.133000   -537.633391
PE02 -28464.560423    605.748380   8073.565259    327.807613
PE03 -23190.779074  -7864.300124  16627.708737   -604.945365
PE04  13340.918477 -10656.580831 -24179.431211  -1126.351762
PE05 -19609.077637 -22157.192941   -866.899502   -139.140608
PE07   4692.219199  23345.827402  17575.430588   -709.420860
PE08 -13158.918042  10645.919850  24277.281793   -607.291872
PE09  -4713.676533 -23229.573241 -17741.242277   -676.385924
PE10  11386.158719 -26906.434496   4794.506397   -480.343412
PE11   4919.959709 -28620.836059  -5736.646688   2004.107420
PE12  15749.562994 -20981.398660  13698.545837   -196.560613
PE13  -5437.709611  28673.850390   4925.124076    430.636295
PE14  17737.997018  12991.341922   8858.896173     14.071965
PE15 -15732.835915  20847.692575 -13919.725607    717.150702
PE18 -24858.016124 -11565.936424 -17344.073734   -917.289302
PE19  23465.843770  10350.479068 -14782.128129  -4394.666259
PE21  16997.830553  11236.962296 -21464.865219   -760.663307
PE24   6201.778932 -17529.086046  23031.843752   -864.813009
PE25 -16701.996554 -11411.920546  21621.161070   -588.965008
PE26   8592.371500  18903.250890  21090.936078  -1671.719863
PE27  -4953.029866  17457.825810 -23372.561747   -404.028241
PE30 -24354.730737  12895.072129 -10786.372978   -877.637875
PE31  23775.972344 -13359.146096  11527.499534   -504.671833
PE33  16685.874196   -774.692952  24438.252636   -454.225193
PE34 -16723.752975    984.465939 -24408.176829     -7.053981
PE36  -7944.540229 -19614.385138 -20698.012065   -438.881050
PG01  13880.884300 -21352.217538   6577.227880    275.376901
PG02 -14399.918031  18876.143762 -11470.132386   -644.230131
PG03  19420.949195 -11932.884657 -13668.502805   -358.512371
PG04   8279.269555 -13757.887175 -21138.982084   -111.090581
PG05 -25652.071064   6520.207663   2770.889463    -98.563788
PG06 -10260.784454 -11888.843688 -21344.033172    476.927127
PG07   4098.403808 -24826.440347   8090.403452    303.246009
PG08  15368.809486  -4498.797848  21204.207175    -86.751727
PG09  -2722.692569 -21232.138868 -15776.878451   -289.600723
PG10  12732.711372  12076.404715  20181.069096     -5.444752
PG11 -16060.944329   -393.331040 -21142.822532    -20.832157
PG12 -20398.320986  10577.543254 -13497.713055   -286.351491
PG13 -17856.970552  -5092.048732  18891.477548    397.105946
PG14 -10294.880393 -13616.176365  20383.228353    -99.548246
PG15 -15023.630056   6578.458509  20496.883356    -24.856870
PG16  26633.771941   1038.247145  -3178.295583   -525.357695
PG17 -12318.684129 -23203.648625   4104.639150    664.129242
PG18  -4073.969878  24607.475057   8920.220739     31.337443
PG19 -17321.869476 -19114.322562  -7103.714744    217.434982
PG20 -24088.477088   -923.348947 -10878.654027    482.287074
PG21  16035.555454 -14423.701816  15600.806124    158.754476
PG22  18219.634081  17265.683831  -8529.558946    336.972295
PG23    910.213104  15028.931007  21864.094657     -0.597949
PG24 -14359.888506  19205.115750  10626.481591    117.630358
PG25  -8776.071705  15481.041603 -19921.282725    377.401419
PG26  23080.938958   4937.100257 -12576.653454    230.614464
PG27  19826.617814   7980.412879  15801.938467    205.272856
PG28 -18468.412083 -10511.896643  16282.720907    334.275952
PG29    248.578122  20723.391502 -16606.571702   -555.784972
PG30  -4609.222312 -20203.961648  16562.940805   -537.187721
PG31  11699.249851  10845.761053 -21312.980261   -195.134018
PG32  15742.291243  21498.892792   1216.621252   -248.556024
PJ02 -34908.538862  17791.412008 -10909.836562     -6.116968
PJ03 -20505.480635  29119.414220 -17932.935599     -2.223341
PR01   9114.184414  14540.388734  18863.544127     15.529055
PR02  21911.356855  12910.446980   2435.634160    -22.816975
PR03  20891.039750   3235.816923 -14282.945407     64.631781
PR04   8162.922391  -7770.988883 -22863.203588    159.422733
PR05  -8878.485962 -14678.548301 -18861.683714    100.468404
PR07 -20455.793271  -2653.907174  15001.040975     41.790231
PR08  -8014.749518   8042.407974  22888.720088    -67.422536
PR09 -14060.020918  -3127.497082  21092.585269     79.449646
PR11 -18127.091000  16276.975723  -7570.376626     25.974495
PR12  -2750.801100  13865.515702 -21198.521987     21.664582
PR13  12657.681786   4137.549372 -21765.146001    -27.316836
PR14  22039.637564  -9277.894709  -8837.840277     24.224950
PR15  17673.550568 -16286.457916   8567.164474     93.462262
PR17  10324.614323  -3693.111602  23043.160062    565.081236
PR18   6174.463408 -19609.286031  15087.991595     44.835202
PR19    120.624089 -25512.012358    448.421930   -205.519086
PR20  -8034.762010 -16063.999096 -18090.243139    -79.336435
PR21 -10090.927030   5302.838245 -22814.474481   -337.744384
PR24   9049.580667  15216.352663  18369.580586    117.491718
PR25  -6910.456064  19921.409598 -14333.173268     13.745491
EOF
